[{"OBJECT_NAME":"STARLINK-4333","OBJECT_ID":"2022-077AX","EPOCH":"2026-03-09T12:19:01.926336","MEAN_MOTION":15.01262655,"ECCENTRICITY":0.00021707,"INCLINATION":97.6023,"RA_OF_ASC_NODE":250.0502,"ARG_OF_PERICENTER":54.3924,"MEAN_ANOMALY":305.7503,"EPHEMERIS_TYPE":0,"CLASSIFICATION_TYPE":"U","NORAD_CAT_ID":53088,"ELEMENT_SET_NO":999,"REV_AT_EPOCH":20089,"BSTAR":4.5768666e-5,"MEAN_MOTION_DOT":5.3e-6,"MEAN_MOTION_DDOT":0},{"OBJECT_NAME":"PEGASUS DEB","OBJECT_ID":"1994-029FZ","EPOCH":"2026-03-09T12:36:59.566752","MEAN_MOTION":14.41175502,"ECCENTRICITY":0.02757153,"INCLINATION":81.7972,"RA_OF_ASC_NODE":78.8441,"ARG_OF_PERICENTER":112.9537,"MEAN_ANOMALY":15.5013,"EPHEMERIS_TYPE":0,"CLASSIFICATION_TYPE":"U","NORAD_CAT_ID":24126,"ELEMENT_SET_NO":999,"REV_AT_EPOCH":53960,"BSTAR":0.0010536774,"MEAN_MOTION_DOT":5.383e-5,"MEAN_MOTION_DDOT":0}]
